ONEWEB-0094             
1 45450U 20020AC  24273.56722198 -.00004248  00000+0 -10976-1 0  9993
2 45450  87.9110 130.4637 0001421  79.3462 280.7829 13.17667135223923
ONEWEB-0087             
1 45451U 20020AD  24273.39775070  .00000398  00000+0  10872-2 0  9998
2 45451  87.8943 145.6722 0001440  82.4112 277.7180 13.11418048220562
ONEWEB-0082             
1 45452U 20020AE  24273.39449655  .00000375  00000+0  10226-2 0  9994
2 45452  87.8949 145.6814 0001713  79.4060 280.7261 13.11418268220650
ONEWEB-0050             
1 45453U 20020AF  24273.54133558  .00012049  00000+0  12089-2 0  9994
2 45453  88.0099   1.7104 0004956  84.2277 275.9517 14.91229396247166
ONEWEB-0034             
1 45454U 20020AG  24273.56913695  .00000426  00000+0  11659-2 0  9993
2 45454  87.8944 145.6662 0001647  77.9649 282.1663 13.11415427220599
ONEWEB-0060             
1 45455U 20020AH  24273.61164971 -.00000421  00000+0 -12228-2 0  9995
2 45455  87.8950 145.6766 0001539  69.9108 290.2185 13.11418454220551
ONEWEB-0086             
1 45456U 20020AJ  24273.59455487 -.00000478  00000+0 -13841-2 0  9992
2 45456  87.8941 145.6618 0001382  90.4055 269.7231 13.11415793220617
ONEWEB-0088             
1 45457U 20020AK  24273.57252921  .00000334  00000+0  90772-3 0  9997
2 45457  87.8937 145.6267 0001549  77.8468 282.2833 13.11415225220545
